ONEWEB-0636             
1 56077U 23043AH  26111.39745459 -.00000021  00000+0 -88909-4 0  9996
2 56077  87.8942 270.5257 0001922 102.3222 257.8124 13.15547552148942
ONEWEB-0637             
1 56078U 23043AJ  26111.39111397 -.00000074  00000+0 -23140-3 0  9998
2 56078  87.8943 270.5444 0001703 106.4267 253.7050 13.15547679148968
ONEWEB-0647             
1 56079U 23043AK  26111.38635904 -.00000116  00000+0 -34285-3 0  9992
2 56079  87.8941 270.5578 0001961  96.5502 263.5851 13.15549130148953
ONEWEB-0651             
1 56080U 23043AL  26111.45766928  .00000042  00000+0  77632-4 0  9993
2 56080  87.8942 270.5379 0001850 105.0880 255.0455 13.15548086150168
ONEWEB-0718             
1 56081U 23043AM  26111.37685995 -.00000026  00000+0 -10309-3 0  9990
2 56081  87.8950 270.5342 0001310  88.4948 271.6332 13.15547026148964
ONEWEB-0561             
1 56710U 23068A   26111.38017637  .00000043  00000+0  72709-4 0  9999
2 56710  87.9139 285.7811 0002195  98.8977 261.2404 13.20772897142007
ONEWEB-0668             
1 56711U 23068B   26111.35520988  .00000144  00000+0  34394-3 0  9994
2 56711  87.9090 240.0580 0001361 110.6404 249.4873 13.16594447144304
ONEWEB-0676             
1 56712U 23068C   26111.36311910  .00000040  00000+0  70274-4 0  9992
2 56712  87.9074 240.0641 0002102 109.1969 250.9389 13.16593235144222
ONEWEB-0677             
1 56713U 23068D   26110.91458821  .00000072  00000+0  14496-3 0  9994
2 56713  87.9133 285.8664 0001637 106.4223 253.7091 13.20774495142241
ONEWEB-0678             
1 56714U 23068E   26111.42122668  .00000157  00000+0  38223-3 0  9997
2 56714  87.8948 270.5122 0002046  92.2587 267.8778 13.15548227141822
ONEWEB-0679             
1 56715U 23068F   26111.39795586 -.00000017  00000+0 -79381-4 0  9997
2 56715  87.9081 240.0470 0001719 120.2417 239.8884 13.16593291144259
ONEWEB-0680             
1 56716U 23068G   26111.39927137  .00000023  00000+0  24592-4 0  9996
2 56716  87.9218 255.2743 0001438 112.1116 248.0171 13.21823875143594
ONEWEB-0681             
1 56717U 23068H   26111.37994468  .00000026  00000+0  31037-4 0  9991
2 56717  87.9211 255.2830 0002625 115.3731 244.7675 13.21827768143588
ONEWEB-0682             
1 56718U 23068J   26111.36892947  .00000067  00000+0  14358-3 0  9991
2 56718  87.8951 270.5246 0001359 108.5234 251.6045 13.15549255141980
ONEWEB-0683             
1 56719U 23068K   26111.39270711 -.00000085  00000+0 -25934-3 0  9998
2 56719  87.8951 270.5174 0001562  98.7023 261.4285 13.15547774141959
ONEWEB-0684             
1 56720U 23068L   26111.40062634 -.00000020  00000+0 -87237-4 0  9999
2 56720  87.8947 270.5076 0002549  66.2709 293.8688 13.15548718141780
