[{"OBJECT_NAME":"ONEWEB-0636","OBJECT_ID":"2023-043AH","EPOCH":"2026-04-21T09:32:20.076576","MEAN_MOTION":13.15547552,"ECCENTRICITY":0.0001922,"INCLINATION":87.8942,"RA_OF_ASC_NODE":270.5257,"ARG_OF_PERICENTER":102.3222,"MEAN_ANOMALY":257.8124,"EPHEMERIS_TYPE":0,"CLASSIFICATION_TYPE":"U","NORAD_CAT_ID":56077,"ELEMENT_SET_NO":999,"REV_AT_EPOCH":14894,"BSTAR":-8.890900000000001e-05,"MEAN_MOTION_DOT":-2.1e-07,"MEAN_MOTION_DDOT":0.0},{"OBJECT_NAME":"ONEWEB-0637","OBJECT_ID":"2023-043AJ","EPOCH":"2026-04-21T09:23:12.247008","MEAN_MOTION":13.15547679,"ECCENTRICITY":0.0001703,"INCLINATION":87.8943,"RA_OF_ASC_NODE":270.5444,"ARG_OF_PERICENTER":106.4267,"MEAN_ANOMALY":253.705,"EPHEMERIS_TYPE":0,"CLASSIFICATION_TYPE":"U","NORAD_CAT_ID":56078,"ELEMENT_SET_NO":999,"REV_AT_EPOCH":14896,"BSTAR":-0.0002314,"MEAN_MOTION_DOT":-7.4e-07,"MEAN_MOTION_DDOT":0.0},{"OBJECT_NAME":"ONEWEB-0647","OBJECT_ID":"2023-043AK","EPOCH":"2026-04-21T09:16:21.421056","MEAN_MOTION":13.1554913,"ECCENTRICITY":0.0001961,"INCLINATION":87.8941,"RA_OF_ASC_NODE":270.5578,"ARG_OF_PERICENTER":96.5502,"MEAN_ANOMALY":263.5851,"EPHEMERIS_TYPE":0,"CLASSIFICATION_TYPE":"U","NORAD_CAT_ID":56079,"ELEMENT_SET_NO":999,"REV_AT_EPOCH":14895,"BSTAR":-0.00034285,"MEAN_MOTION_DOT":-1.16e-06,"MEAN_MOTION_DDOT":0.0},{"OBJECT_NAME":"ONEWEB-0651","OBJECT_ID":"2023-043AL","EPOCH":"2026-04-21T10:59:02.625792","MEAN_MOTION":13.15548086,"ECCENTRICITY":0.000185,"INCLINATION":87.8942,"RA_OF_ASC_NODE":270.5379,"ARG_OF_PERICENTER":105.088,"MEAN_ANOMALY":255.0455,"EPHEMERIS_TYPE":0,"CLASSIFICATION_TYPE":"U","NORAD_CAT_ID":56080,"ELEMENT_SET_NO":999,"REV_AT_EPOCH":15016,"BSTAR":7.7632e-05,"MEAN_MOTION_DOT":4.2e-07,"MEAN_MOTION_DDOT":0.0},{"OBJECT_NAME":"ONEWEB-0718","OBJECT_ID":"2023-043AM","EPOCH":"2026-04-21T09:02:40.699680","MEAN_MOTION":13.15547026,"ECCENTRICITY":0.000131,"INCLINATION":87.895,"RA_OF_ASC_NODE":270.5342,"ARG_OF_PERICENTER":88.4948,"MEAN_ANOMALY":271.6332,"EPHEMERIS_TYPE":0,"CLASSIFICATION_TYPE":"U","NORAD_CAT_ID":56081,"ELEMENT_SET_NO":999,"REV_AT_EPOCH":14896,"BSTAR":-0.00010309,"MEAN_MOTION_DOT":-2.6e-07,"MEAN_MOTION_DDOT":0.0},{"OBJECT_NAME":"ONEWEB-0561","OBJECT_ID":"2023-068A","EPOCH":"2026-04-21T09:07:27.238368","MEAN_MOTION":13.20772897,"ECCENTRICITY":0.0002195,"INCLINATION":87.9139,"RA_OF_ASC_NODE":285.7811,"ARG_OF_PERICENTER":98.8977,"MEAN_ANOMALY":261.2404,"EPHEMERIS_TYPE":0,"CLASSIFICATION_TYPE":"U","NORAD_CAT_ID":56710,"ELEMENT_SET_NO":999,"REV_AT_EPOCH":14200,"BSTAR":7.270900000000001e-05,"MEAN_MOTION_DOT":4.3e-07,"MEAN_MOTION_DDOT":0.0},{"OBJECT_NAME":"ONEWEB-0668","OBJECT_ID":"2023-068B","EPOCH":"2026-04-21T08:31:30.133632","MEAN_MOTION":13.16594447,"ECCENTRICITY":0.0001361,"INCLINATION":87.909,"RA_OF_ASC_NODE":240.058,"ARG_OF_PERICENTER":110.6404,"MEAN_ANOMALY":249.4873,"EPHEMERIS_TYPE":0,"CLASSIFICATION_TYPE":"U","NORAD_CAT_ID":56711,"ELEMENT_SET_NO":999,"REV_AT_EPOCH":14430,"BSTAR":0.00034394000000000004,"MEAN_MOTION_DOT":1.44e-06,"MEAN_MOTION_DDOT":0.0},{"OBJECT_NAME":"ONEWEB-0676","OBJECT_ID":"2023-068C","EPOCH":"2026-04-21T08:42:53.490240","MEAN_MOTION":13.16593235,"ECCENTRICITY":0.0002102,"INCLINATION":87.9074,"RA_OF_ASC_NODE":240.0641,"ARG_OF_PERICENTER":109.1969,"MEAN_ANOMALY":250.9389,"EPHEMERIS_TYPE":0,"CLASSIFICATION_TYPE":"U","NORAD_CAT_ID":56712,"ELEMENT_SET_NO":999,"REV_AT_EPOCH":14422,"BSTAR":7.027400000000001e-05,"MEAN_MOTION_DOT":4e-07,"MEAN_MOTION_DDOT":0.0},{"OBJECT_NAME":"ONEWEB-0677","OBJECT_ID":"2023-068D","EPOCH":"2026-04-20T21:57:00.421344","MEAN_MOTION":13.20774495,"ECCENTRICITY":0.0001637,"INCLINATION":87.9133,"RA_OF_ASC_NODE":285.8664,"ARG_OF_PERICENTER":106.4223,"MEAN_ANOMALY":253.7091,"EPHEMERIS_TYPE":0,"CLASSIFICATION_TYPE":"U","NORAD_CAT_ID":56713,"ELEMENT_SET_NO":999,"REV_AT_EPOCH":14224,"BSTAR":0.00014496000000000002,"MEAN_MOTION_DOT":7.2e-07,"MEAN_MOTION_DDOT":0.0},{"OBJECT_NAME":"ONEWEB-0678","OBJECT_ID":"2023-068E","EPOCH":"2026-04-21T10:06:33.985152","MEAN_MOTION":13.15548227,"ECCENTRICITY":0.0002046,"INCLINATION":87.8948,"RA_OF_ASC_NODE":270.5122,"ARG_OF_PERICENTER":92.2587,"MEAN_ANOMALY":267.8778,"EPHEMERIS_TYPE":0,"CLASSIFICATION_TYPE":"U","NORAD_CAT_ID":56714,"ELEMENT_SET_NO":999,"REV_AT_EPOCH":14182,"BSTAR":0.00038223,"MEAN_MOTION_DOT":1.57e-06,"MEAN_MOTION_DDOT":0.0},{"OBJECT_NAME":"ONEWEB-0679","OBJECT_ID":"2023-068F","EPOCH":"2026-04-21T09:33:03.386304","MEAN_MOTION":13.16593291,"ECCENTRICITY":0.0001719,"INCLINATION":87.9081,"RA_OF_ASC_NODE":240.047,"ARG_OF_PERICENTER":120.2417,"MEAN_ANOMALY":239.8884,"EPHEMERIS_TYPE":0,"CLASSIFICATION_TYPE":"U","NORAD_CAT_ID":56715,"ELEMENT_SET_NO":999,"REV_AT_EPOCH":14425,"BSTAR":-7.9381e-05,"MEAN_MOTION_DOT":-1.7e-07,"MEAN_MOTION_DDOT":0.0},{"OBJECT_NAME":"ONEWEB-0680","OBJECT_ID":"2023-068G","EPOCH":"2026-04-21T09:34:57.046368","MEAN_MOTION":13.21823875,"ECCENTRICITY":0.0001438,"INCLINATION":87.9218,"RA_OF_ASC_NODE":255.2743,"ARG_OF_PERICENTER":112.1116,"MEAN_ANOMALY":248.0171,"EPHEMERIS_TYPE":0,"CLASSIFICATION_TYPE":"U","NORAD_CAT_ID":56716,"ELEMENT_SET_NO":999,"REV_AT_EPOCH":14359,"BSTAR":2.4592e-05,"MEAN_MOTION_DOT":2.3e-07,"MEAN_MOTION_DDOT":0.0},{"OBJECT_NAME":"ONEWEB-0681","OBJECT_ID":"2023-068H","EPOCH":"2026-04-21T09:07:07.220352","MEAN_MOTION":13.21827768,"ECCENTRICITY":0.0002625,"INCLINATION":87.9211,"RA_OF_ASC_NODE":255.283,"ARG_OF_PERICENTER":115.3731,"MEAN_ANOMALY":244.7675,"EPHEMERIS_TYPE":0,"CLASSIFICATION_TYPE":"U","NORAD_CAT_ID":56717,"ELEMENT_SET_NO":999,"REV_AT_EPOCH":14358,"BSTAR":3.1037e-05,"MEAN_MOTION_DOT":2.6e-07,"MEAN_MOTION_DDOT":0.0},{"OBJECT_NAME":"ONEWEB-0682","OBJECT_ID":"2023-068J","EPOCH":"2026-04-21T08:51:15.506208","MEAN_MOTION":13.15549255,"ECCENTRICITY":0.0001359,"INCLINATION":87.8951,"RA_OF_ASC_NODE":270.5246,"ARG_OF_PERICENTER":108.5234,"MEAN_ANOMALY":251.6045,"EPHEMERIS_TYPE":0,"CLASSIFICATION_TYPE":"U","NORAD_CAT_ID":56718,"ELEMENT_SET_NO":999,"REV_AT_EPOCH":14198,"BSTAR":0.00014358,"MEAN_MOTION_DOT":6.7e-07,"MEAN_MOTION_DDOT":0.0},{"OBJECT_NAME":"ONEWEB-0683","OBJECT_ID":"2023-068K","EPOCH":"2026-04-21T09:25:29.894304","MEAN_MOTION":13.15547774,"ECCENTRICITY":0.0001562,"INCLINATION":87.8951,"RA_OF_ASC_NODE":270.5174,"ARG_OF_PERICENTER":98.7023,"MEAN_ANOMALY":261.4285,"EPHEMERIS_TYPE":0,"CLASSIFICATION_TYPE":"U","NORAD_CAT_ID":56719,"ELEMENT_SET_NO":999,"REV_AT_EPOCH":14195,"BSTAR":-0.00025934,"MEAN_MOTION_DOT":-8.5e-07,"MEAN_MOTION_DDOT":0.0},{"OBJECT_NAME":"ONEWEB-0684","OBJECT_ID":"2023-068L","EPOCH":"2026-04-21T09:36:54.115776","MEAN_MOTION":13.15548718,"ECCENTRICITY":0.0002549,"INCLINATION":87.8947,"RA_OF_ASC_NODE":270.5076,"ARG_OF_PERICENTER":66.2709,"MEAN_ANOMALY":293.8688,"EPHEMERIS_TYPE":0,"CLASSIFICATION_TYPE":"U","NORAD_CAT_ID":56720,"ELEMENT_SET_NO":999,"REV_AT_EPOCH":14178,"BSTAR":-8.7237e-05,"MEAN_MOTION_DOT":-2e-07,"MEAN_MOTION_DDOT":0.0}]